COMMENT,ORIGINATOR,NORAD_CAT_ID,OBJECT_NAME,OBJECT_TYPE,CLASSIFICATION_TYPE,INTLDES,EPOCH,EPOCH_MICROSECONDS,MEAN_MOTION,ECCENTRICITY,INCLINATION,RA_OF_ASC_NODE,ARG_OF_PERICENTER,MEAN_ANOMALY,EPHEMERIS_TYPE,ELEMENT_SET_NO,REV_AT_EPOCH,BSTAR,MEAN_MOTION_DOT,MEAN_MOTION_DDOT,FILE,TLE_LINE0,TLE_LINE1,TLE_LINE2,OBJECT_ID,OBJECT_NUMBER,SEMIMAJOR_AXIS,PERIOD,APOGEE,PERIGEE,DECAYED
"GENERATED VIA SPACETRACK.ORG API","18 SPCS","48897","SPACEBEE-109","PAYLOAD","U","21059U","2022-02-21 08:33:10","570176","15.1359846","0.0010386","97.539","182.9929","140.4316","219.7675","0","999","3636","0.00034227","0.00006087","0","3311245","0 SPACEBEE-109","1 48897U 21059U   22052.35637234  .00006087  00000-0  34227-3 0  9999","2 48897  97.5390 182.9929 0010386 140.4316 219.7675 15.13598460 36365","2021-059U","48897","6903.374","95.138","532.409","518.069","0"
"GENERATED VIA SPACETRACK.ORG API","18 SPCS","48897","SPACEBEE-109","PAYLOAD","U","21059U","2022-02-21 21:14:45","445344","15.13605563","0.0010414","97.5389","183.5163","138.7293","221.4728","0","999","3644","0.00034769","0.00006185","0","3312023","0 SPACEBEE-109","1 48897U 21059U   22052.88524821  .00006185  00000-0  34769-3 0  9994","2 48897  97.5389 183.5163 0010414 138.7293 221.4728 15.13605563 36447","2021-059U","48897","6903.352","95.137","532.406","518.028","0"
"GENERATED VIA SPACETRACK.ORG API","18 SPCS","48897","SPACEBEE-109","PAYLOAD","U","21059U","2022-02-22 08:21:08","258400","15.13611158","0.0010425","97.5388","183.9743","137.3151","222.8892","0","999","3651","0.0003265","0.00005805","0","3313833","0 SPACEBEE-109","1 48897U 21059U   22053.34801225  .00005805  00000-0  32650-3 0  9997","2 48897  97.5388 183.9743 0010425 137.3151 222.8892 15.13611158 36516","2021-059U","48897","6903.335","95.137","532.397","518.003","0"
"GENERATED VIA SPACETRACK.ORG API","18 SPCS","48897","SPACEBEE-109","PAYLOAD","U","21059U","2022-02-22 19:27:30","915936","15.1361856","0.001045","97.5386","184.4322","135.8724","224.3343","0","999","3658","0.00036042","0.00006417","0","3314065","0 SPACEBEE-109","1 48897U 21059U   22053.81077449  .00006417  00000-0  36042-3 0  9991","2 48897  97.5386 184.4322 0010450 135.8724 224.3343 15.13618560 36589","2021-059U","48897","6903.313","95.136","532.392","517.964","0"
"GENERATED VIA SPACETRACK.ORG API","18 SPCS","48897","SPACEBEE-109","PAYLOAD","U","21059U","2022-02-22 21:02:42","743040","15.13617326","0.0010446","97.5386","184.4976","135.6913","224.5156","0","999","3659","0.00031334","0.00005569","0","3314780","0 SPACEBEE-109","1 48897U 21059U   22053.87688360  .00005569  00000-0  31334-3 0  9993","2 48897  97.5386 184.4976 0010446 135.6913 224.5156 15.13617326 36591","2021-059U","48897","6903.316","95.136","532.393","517.970","0"
"GENERATED VIA SPACETRACK.ORG API","18 SPCS","48897","SPACEBEE-109","PAYLOAD","U","21059U","2022-02-23 14:29:52","347840","15.13625582","0.0010496","97.5385","185.2173","133.4235","226.7872","0","999","3670","0.00029737","0.00005283","0","3316306","0 SPACEBEE-109","1 48897U 21059U   22054.60407810  .00005283  00000-0  29737-3 0  9991","2 48897  97.5385 185.2173 0010496 133.4235 226.7872 15.13625582 36701","2021-059U","48897","6903.291","95.136","532.402","517.911","0"
"GENERATED VIA SPACETRACK.ORG API","18 SPCS","48897","SPACEBEE-109","PAYLOAD","U","21059U","2022-02-23 20:50:39","395328","15.13628739","0.0010492","97.5385","185.479","132.6696","227.5421","0","999","3674","0.0002949","0.00005239","0","3317219","0 SPACEBEE-109","1 48897U 21059U   22054.86851152  .00005239  00000-0  29490-3 0  9998","2 48897  97.5385 185.4790 0010492 132.6696 227.5421 15.13628739 36746","2021-059U","48897","6903.282","95.136","532.390","517.904","0"
"GENERATED VIA SPACETRACK.ORG API","18 SPCS","48897","SPACEBEE-109","PAYLOAD","U","21059U","2022-02-24 03:11:26","378016","15.13632339","0.0010492","97.5385","185.7407","131.9094","228.3034","0","999","3678","0.00030719","0.00005461","0","3317459","0 SPACEBEE-109","1 48897U 21059U   22055.13294419  .00005461  00000-0  30719-3 0  9999","2 48897  97.5385 185.7407 0010492 131.9094 228.3034 15.13632339 36782","2021-059U","48897","6903.271","95.135","532.379","517.893","0"
"GENERATED VIA SPACETRACK.ORG API","18 SPCS","48897","SPACEBEE-109","PAYLOAD","U","21059U","2022-02-24 07:57:01","576800","15.13635266","0.0010493","97.5384","185.937","131.2947","228.9189","0","999","3681","0.00031572","0.00005615","0","3318573","0 SPACEBEE-109","1 48897U 21059U   22055.33126825  .00005615  00000-0  31572-3 0  9995","2 48897  97.5384 185.9370 0010493 131.2947 228.9189 15.13635266 36816","2021-059U","48897","6903.262","95.135","532.370","517.883","0"
"GENERATED VIA SPACETRACK.ORG API","18 SPCS","48897","SPACEBEE-109","PAYLOAD","U","21059U","2022-02-24 22:13:47","89344","15.13640542","0.0010495","97.5384","186.5259","129.5468","230.6693","0","999","3690","0.00027919","0.00004958","0","3320325","0 SPACEBEE-109","1 48897U 21059U   22055.92623946  .00004958  00000-0  27919-3 0  9995","2 48897  97.5384 186.5259 0010495 129.5468 230.6693 15.13640542 36902","2021-059U","48897","6903.246","95.135","532.356","517.866","0"
"GENERATED VIA SPACETRACK.ORG API","18 SPCS","48897","SPACEBEE-109","PAYLOAD","U","21059U","2022-02-25 07:44:57","274368","15.13646482","0.0010485","97.5383","186.9184","128.3865","231.831","0","999","3696","0.00031635","0.00005628","0","3321745","0 SPACEBEE-109","1 48897U 21059U   22056.32288512  .00005628  00000-0  31635-3 0  9991","2 48897  97.5383 186.9184 0010485 128.3865 231.8310 15.13646482 36963","2021-059U","48897","6903.228","95.134","532.331","517.855","0"
"GENERATED VIA SPACETRACK.ORG API","18 SPCS","48897","SPACEBEE-109","PAYLOAD","U","21059U","2022-02-25 20:26:30","714432","15.13652329","0.0010473","97.5383","187.4418","126.8041","233.4152","0","999","3704","0.00031377","0.00005583","0","3323947","0 SPACEBEE-109","1 48897U 21059U   22056.85174438  .00005583  00000-0  31377-3 0  9993","2 48897  97.5383 187.4418 0010473 126.8041 233.4152 15.13652329 37044","2021-059U","48897","6903.210","95.134","532.305","517.845","0"
"GENERATED VIA SPACETRACK.ORG API","18 SPCS","48897","SPACEBEE-109","PAYLOAD","U","21059U","2022-02-26 07:32:52","323936","15.13658027","0.0010498","97.5384","187.8998","125.3578","234.8636","0","999","3711","0.00032435","0.00005774","0","3326397","0 SPACEBEE-109","1 48897U 21059U   22057.31449449  .00005774  00000-0  32435-3 0  9990","2 48897  97.5384 187.8998 0010498 125.3578 234.8636 15.13658027 37119","2021-059U","48897","6903.193","95.134","532.305","517.811","0"
"GENERATED VIA SPACETRACK.ORG API","18 SPCS","48897","SPACEBEE-109","PAYLOAD","U","21059U","2022-02-26 20:14:25","422720","15.13664552","0.0010498","97.5386","188.4233","123.7017","236.5216","0","999","3719","0.00034111","0.00006077","0","3326577","0 SPACEBEE-109","1 48897U 21059U   22057.84334980  .00006077  00000-0  34111-3 0  9991","2 48897  97.5386 188.4233 0010498 123.7017 236.5216 15.13664552 37191","2021-059U","48897","6903.173","95.133","532.285","517.791","0"
"GENERATED VIA SPACETRACK.ORG API","18 SPCS","48897","SPACEBEE-109","PAYLOAD","U","21059U","2022-02-26 21:49:37","30368","15.13664033","0.0010505","97.5386","188.4886","123.5094","236.7142","0","999","3720","0.00029767","0.00005294","0","3327391","0 SPACEBEE-109","1 48897U 21059U   22057.90945637  .00005294  00000-0  29767-3 0  9996","2 48897  97.5386 188.4886 0010505 123.5094 236.7142 15.13664033 37203","2021-059U","48897","6903.174","95.133","532.291","517.788","0"
"GENERATED VIA SPACETRACK.ORG API","18 SPCS","48897","SPACEBEE-109","PAYLOAD","U","21059U","2022-02-27 07:20:46","704768","15.13669969","0.0010514","97.5388","188.8812","122.2909","237.9342","0","999","3726","0.00033522","0.00005972","0","3329903","0 SPACEBEE-109","1 48897U 21059U   22058.30609612  .00005972  00000-0  33522-3 0  9998","2 48897  97.5388 188.8812 0010514 122.2909 237.9342 15.13669969 37263","2021-059U","48897","6903.156","95.133","532.279","517.763","0"
"GENERATED VIA SPACETRACK.ORG API","18 SPCS","48897","SPACEBEE-109","PAYLOAD","U","21059U","2022-02-27 21:37:30","965376","15.13679429","0.0010581","97.539","189.4701","120.4119","239.816","0","999","3735","0.00038998","0.00006961","0","3331200","0 SPACEBEE-109","1 48897U 21059U   22058.90105284  .00006961  00000-0  38998-3 0  9991","2 48897  97.5390 189.4701 0010581 120.4119 239.8160 15.13679429 37358","2021-059U","48897","6903.128","95.132","532.297","517.688","0"
"GENERATED VIA SPACETRACK.ORG API","18 SPCS","48897","SPACEBEE-109","PAYLOAD","U","21059U","2022-02-28 02:23:05","644896","15.13682742","0.0010594","97.5391","189.6664","119.7756","240.453","0","999","3738","0.00040994","0.00007322","0","3331555","0 SPACEBEE-109","1 48897U 21059U   22059.09937089  .00007322  00000-0  40994-3 0  9999","2 48897  97.5391 189.6664 0010594 119.7756 240.4530 15.13682742 37385","2021-059U","48897","6903.118","95.132","532.296","517.669","0"
"GENERATED VIA SPACETRACK.ORG API","18 SPCS","48897","SPACEBEE-109","PAYLOAD","U","21059U","2022-02-28 08:43:51","868128","15.13685177","0.0010622","97.5392","189.9281","118.9238","241.306","0","999","3742","0.00037822","0.0000675","0","3333642","0 SPACEBEE-109","1 48897U 21059U   22059.36379477  .00006750  00000-0  37822-3 0  9990","2 48897  97.5392 189.9281 0010622 118.9238 241.3060 15.13685177 37420","2021-059U","48897","6903.110","95.132","532.308","517.643","0"
"GENERATED VIA SPACETRACK.ORG API","18 SPCS","48897","SPACEBEE-109","PAYLOAD","U","21059U","2022-02-28 21:25:24","143520","15.13690848","0.0010644","97.5394","190.4515","117.349","242.8826","0","999","3750","0.00034308","0.00006118","0","3334872","0 SPACEBEE-109","1 48897U 21059U   22059.89264055  .00006118  00000-0  34308-3 0  9997","2 48897  97.5394 190.4515 0010644 117.3490 242.8826 15.13690848 37502","2021-059U","48897","6903.093","95.132","532.306","517.610","0"
